{
  "norad_id": 63018,
  "name": "STARLINK-32870",
  "history": [
    {
      "epoch": "2026-03-28T17:54:50.477184",
      "apogee_km": 484.0080473609178,
      "perigee_km": 482.0176277930368,
      "latitude_deg": -22.883136861064823,
      "longitude_deg": -166.54391423985362,
      "semi_major_axis_km": 6861.149837576977,
      "eccentricity": 0.00014505,
      "inclination_deg": 42.9983,
      "raan_deg": 228.4968,
      "arg_perigee_deg": 271.5912,
      "mean_anomaly_deg": 88.4774,
      "mean_motion_rev_day": 15.27592109
    }
  ]
}